OBJECT_NAME,OBJECT_ID,EPOCH,MEAN_MOTION,ECCENTRICITY,INCLINATION,RA_OF_ASC_NODE,ARG_OF_PERICENTER,MEAN_ANOMALY,EPHEMERIS_TYPE,CLASSIFICATION_TYPE,NORAD_CAT_ID,ELEMENT_SET_NO,REV_AT_EPOCH,BSTAR,MEAN_MOTION_DOT,MEAN_MOTION_DDOT
H-2A R/B,2006-002B,2026-06-19T11:50:26.820672,15.18084943,.00496044,98.2571,326.5305,254.2243,105.3515,0,U,28932,999,10987,.26150486E-3,.5418E-4,0
RESURS-DK 1,2006-021A,2026-06-19T11:32:53.465568,15.13225616,.00068801,69.9330,333.6151,290.7888,69.2541,0,U,29228,999,10292,.93163662E-4,.1551E-4,0
CZ-4B R/B,2006-046C,2026-06-19T13:26:50.174016,15.17797694,.00309542,97.5449,215.1602,274.0576,85.7120,0,U,29507,999,7549,.14721567E-3,.294E-4,0
CZ-2C R/B,2007-010B,2026-06-19T12:36:53.611200,14.20276541,.00588728,98.4102,278.7621,359.3184,0.7904,0,U,31114,999,99417,.42794361E-4,.52E-6,0
COSMO-SKYMED 1,2007-023A,2026-06-19T14:35:29.444352,14.97109815,.00014814,97.8850,2.4838,98.0883,262.0506,0,U,31598,999,3015,.19993755E-3,.2247E-4,0
COSMOS 2428,2007-029A,2026-06-19T04:43:21.010080,14.12927953,.00071302,70.9350,350.2580,131.1974,228.9763,0,U,31792,999,97843,-.27669922E-4,-.99E-6,0
SL-16 R/B,2007-029B,2026-06-19T14:05:45.384576,14.14855610,.00023745,70.9771,318.1824,262.7485,175.6192,0,U,31793,999,97978,.28475397E-4,.7E-7,0
KORONAS-FOTON,2009-003A,2026-06-19T11:22:10.322112,15.45761286,.0011897,82.4289,169.8742,140.0965,220.1160,0,U,33504,999,96145,.20420337E-3,.9943E-4,0
CZ-2C R/B,2011-030B,2026-06-19T08:30:31.963968,14.81476109,.00528864,97.8655,125.7015,21.0278,131.5769,0,U,37731,999,80514,.13261401E-3,.1009E-4,0
H-2A R/B,2012-025E,2026-06-19T11:57:36.124128,14.95730025,.00434963,98.4833,145.8345,341.6252,18.3393,0,U,38341,999,76343,.15714702E-3,.1712E-4,0
SHIJIAN-16 (SJ-16),2013-057A,2026-06-19T15:39:25.560288,14.92607180,.00167133,74.9726,352.0133,225.0439,134.9395,0,U,39358,999,68671,.44768225E-4,.432E-5,0
SL-4 R/B,2014-021B,2026-06-19T07:58:19.329024,15.41991615,.00911474,51.6042,200.2620,113.7762,247.2814,0,U,39679,999,67194,.16587932E-3,.788E-4,0
ALOS-2,2014-029A,2026-06-19T13:46:29.362944,14.79476685,.00016928,97.9224,267.7035,91.9201,268.2204,0,U,39766,999,65193,.21271453E-3,.1538E-4,0
YAOGAN-29,2015-069A,2026-06-19T14:33:35.506080,14.83086053,.0002516,98.0020,199.2438,49.9674,310.1760,0,U,41038,999,57098,-.2495184E-5,-.74E-6,0
ASTRO-H (HITOMI),2016-012A,2026-06-19T03:34:18.179328,15.10517915,.00097746,30.9995,61.5179,273.2762,86.6758,0,U,41337,999,56758,.11243593E-3,.1996E-4,0
HXMT (HUIYAN),2017-034A,2026-06-19T10:28:41.232576,15.18487849,.0030876,43.0125,170.5154,161.6536,198.5432,0,U,42758,999,49800,.11860867E-3,.2273E-4,0
SAOCOM 1A,2018-076A,2026-06-19T15:12:51.971040,14.82150608,.00015941,97.8882,357.3465,79.9578,280.1815,0,U,43641,999,41646,.40636831E-4,.271E-5,0
H-2A R/B,2018-084L,2026-06-19T14:08:11.922432,15.45231454,.00232546,98.8568,50.0032,32.4127,327.8540,0,U,43682,999,42149,.35427358E-3,.16903E-3,0
SAOCOM 1B,2020-059A,2026-06-19T14:20:31.069248,14.82145956,.00015652,97.8884,356.4053,84.9472,275.1920,0,U,46265,999,31384,-.4335874E-5,-.87E-6,0
CSS (TIANHE),2021-035A,2026-06-19T12:52:24.981600,15.60899851,.00073639,41.4696,307.7047,97.4720,262.6956,0,U,48274,999,29353,.2264613E-3,.19225E-3,0
COSMOS 2550,2021-056A,2026-06-19T15:10:38.208288,15.33833013,.00084091,67.1432,92.5096,268.8789,91.1402,0,U,48865,999,27909,.13132307E-3,.4132E-4,0
CZ-2C R/B,2022-058K,2026-06-19T10:00:53.519904,15.61996467,.00324688,50.1848,151.9127,277.2329,82.4954,0,U,52794,999,22599,.39544038E-3,.35796E-3,0
CZ-2C R/B,2022-132E,2026-06-19T13:43:38.078400,15.71740322,.00157108,97.2905,177.7027,76.9211,283.3805,0,U,54039,999,20632,.43004627E-3,.56019E-3,0
GSLV R/B,2022-138AN,2026-06-19T07:45:32.179104,14.97265261,.0023109,87.3806,132.2670,136.4786,223.8275,0,U,54149,999,19913,.17092666E-3,.2019E-4,0
XRISM,2023-137A,2026-06-19T13:35:42.133632,15.12484218,.00079343,31.0032,344.1895,347.4528,12.5912,0,U,57800,999,15322,.21890109E-3,.4004E-4,0
ACS3,2024-077B,2026-06-19T12:03:12.008448,13.94234122,.00802963,97.1690,88.7765,62.1682,298.7592,0,U,59588,999,10836,.29198019E-1,.39988E-3,0
CZ-8A R/B,2025-231K,2026-06-19T06:54:43.352928,14.30155399,.01164836,50.0053,30.3782,231.4081,127.6356,0,U,66004,999,3524,.51914506E-4,-.18E-6,0
SZ-21 MODULE,2025-246C,2026-06-19T14:57:10.817568,15.76588492,.00059262,41.4730,292.1532,7.7871,352.3065,0,U,66515,999,3412,.24285803E-3,.39794E-3,0
